STARLINK-5356           
1 56418U 23061AW  26038.25297694  .00000089  00000+0  21629-4 0  9999
2 56418  43.0042 337.0622 0001087 272.0142  88.0576 15.02536901152471
STARLINK-5350           
1 56419U 23061AX  26038.21388364 -.00000343  00000+0 -10347-4 0  9991
2 56419  43.0047 349.7778 0001782 256.0816 103.9828 15.02525037152320
STARLINK-6272           
1 56420U 23061AY  26038.24964447  .00001234  00000+0  10638-3 0  9998
2 56420  43.0056 337.0357 0001635 259.9061 100.1596 15.02538156152479
STARLINK-6270           
1 56421U 23061AZ  26038.20315719 -.00000455  00000+0 -18586-4 0  9994
2 56421  43.0035 337.5433 0001108 253.9648 106.1072 15.02527554152461
STARLINK-6236           
1 56422U 23061BA  26038.24298625  .00001371  00000+0  11655-3 0  9990
2 56422  43.0042 336.9887 0001458 252.3653 107.7030 15.02538165152475
STARLINK-6239           
1 56423U 23061BB  26038.17984806 -.00001059  00000+0 -63380-4 0  9994
2 56423  43.0036 337.3723 0001040 269.0618  91.0105 15.02527058152462
STARLINK-6242           
1 56424U 23061BC  26037.97042432 -.00000260  00000+0 -42148-5 0  9995
2 56424  43.0045 338.3801 0001091 262.4152  97.6566 15.02529022152430
STARLINK-6224           
1 56425U 23061BD  26036.91010243  .00000579  00000+0  57921-4 0  9999
2 56425  43.0053 344.1853 0001215 272.5308  87.5395 15.02533960152271
STARLINK-5352           
1 56426U 23061BE  26038.21644870  .00001817  00000+0  14948-3 0  9991
2 56426  43.0064 337.6354 0001280 269.5714  90.4981 15.02551096152461
STARLINK-5724           
1 56427U 23061BF  26038.20647121 -.00005317  00000+0 -37869-3 0  9991
2 56427  43.0061 337.5610 0001837 271.3963  88.6669 15.02547027152469
STARLINK-6238           
1 56428U 23061BG  26038.22967937 -.00001687  00000+0 -10984-3 0  9999
2 56428  43.0056 336.8870 0001094 269.9591  90.1126 15.02528554152470
STARLINK-6264           
1 56429U 23061BH  26038.22636095 -.00001684  00000+0 -10967-3 0  9996
2 56429  43.0067 336.8625 0001458 267.3263  92.7413 15.02522609152475
STARLINK-5990           
1 56448U 23064A   26037.90892767 -.00001403  00000+0 -10984-3 0  9992
2 56448  69.9989 222.1339 0002442 277.7896  82.2986 14.98330695150637
STARLINK-5993           
1 56449U 23064B   26037.92964456  .00001975  00000+0  17319-3 0  9991
2 56449  69.9987 222.2073 0002654 267.2806  92.8049 14.98338963150635
STARLINK-5970           
1 56450U 23064C   26037.90475945 -.00001188  00000+0 -91835-4 0  9995
2 56450  69.9987 222.1190 0002711 279.7915  80.2938 14.98320041150635
STARLINK-5985           
1 56451U 23064D   26037.92546218  .00000578  00000+0  56271-4 0  9995
2 56451  69.9991 222.1924 0002619 266.7495  93.3365 14.98326348150637
