[{"OBJECT_NAME":"STARLINK-5356","OBJECT_ID":"2023-061AW","EPOCH":"2026-02-07T06:04:17.207616","MEAN_MOTION":15.02536901,"ECCENTRICITY":0.0001087,"INCLINATION":43.0042,"RA_OF_ASC_NODE":337.0622,"ARG_OF_PERICENTER":272.0142,"MEAN_ANOMALY":88.0576,"EPHEMERIS_TYPE":0,"CLASSIFICATION_TYPE":"U","NORAD_CAT_ID":56418,"ELEMENT_SET_NO":999,"REV_AT_EPOCH":15247,"BSTAR":2.1629357e-5,"MEAN_MOTION_DOT":8.9e-7,"MEAN_MOTION_DDOT":0},{"OBJECT_NAME":"STARLINK-5350","OBJECT_ID":"2023-061AX","EPOCH":"2026-02-07T05:07:59.546496","MEAN_MOTION":15.02525037,"ECCENTRICITY":0.00017825,"INCLINATION":43.0047,"RA_OF_ASC_NODE":349.7778,"ARG_OF_PERICENTER":256.0816,"MEAN_ANOMALY":103.9828,"EPHEMERIS_TYPE":0,"CLASSIFICATION_TYPE":"U","NORAD_CAT_ID":56419,"ELEMENT_SET_NO":999,"REV_AT_EPOCH":15232,"BSTAR":-1.034675e-5,"MEAN_MOTION_DOT":-3.43e-6,"MEAN_MOTION_DDOT":0},{"OBJECT_NAME":"STARLINK-6272","OBJECT_ID":"2023-061AY","EPOCH":"2026-02-07T05:59:29.282208","MEAN_MOTION":15.02538156,"ECCENTRICITY":0.00016359,"INCLINATION":43.0056,"RA_OF_ASC_NODE":337.0357,"ARG_OF_PERICENTER":259.9061,"MEAN_ANOMALY":100.1596,"EPHEMERIS_TYPE":0,"CLASSIFICATION_TYPE":"U","NORAD_CAT_ID":56420,"ELEMENT_SET_NO":999,"REV_AT_EPOCH":15247,"BSTAR":0.00010638035,"MEAN_MOTION_DOT":1.234e-5,"MEAN_MOTION_DDOT":0},{"OBJECT_NAME":"STARLINK-6270","OBJECT_ID":"2023-061AZ","EPOCH":"2026-02-07T04:52:32.781216","MEAN_MOTION":15.02527554,"ECCENTRICITY":0.0001108,"INCLINATION":43.0035,"RA_OF_ASC_NODE":337.5433,"ARG_OF_PERICENTER":253.9648,"MEAN_ANOMALY":106.1072,"EPHEMERIS_TYPE":0,"CLASSIFICATION_TYPE":"U","NORAD_CAT_ID":56421,"ELEMENT_SET_NO":999,"REV_AT_EPOCH":15246,"BSTAR":-1.8585979e-5,"MEAN_MOTION_DOT":-4.55e-6,"MEAN_MOTION_DDOT":0},{"OBJECT_NAME":"STARLINK-6236","OBJECT_ID":"2023-061BA","EPOCH":"2026-02-07T05:49:54.012000","MEAN_MOTION":15.02538165,"ECCENTRICITY":0.00014586,"INCLINATION":43.0042,"RA_OF_ASC_NODE":336.9887,"ARG_OF_PERICENTER":252.3653,"MEAN_ANOMALY":107.703,"EPHEMERIS_TYPE":0,"CLASSIFICATION_TYPE":"U","NORAD_CAT_ID":56422,"ELEMENT_SET_NO":999,"REV_AT_EPOCH":15247,"BSTAR":0.0001165461,"MEAN_MOTION_DOT":1.371e-5,"MEAN_MOTION_DDOT":0},{"OBJECT_NAME":"STARLINK-6239","OBJECT_ID":"2023-061BB","EPOCH":"2026-02-07T04:18:58.872384","MEAN_MOTION":15.02527058,"ECCENTRICITY":0.00010408,"INCLINATION":43.0036,"RA_OF_ASC_NODE":337.3723,"ARG_OF_PERICENTER":269.0618,"MEAN_ANOMALY":91.0105,"EPHEMERIS_TYPE":0,"CLASSIFICATION_TYPE":"U","NORAD_CAT_ID":56423,"ELEMENT_SET_NO":999,"REV_AT_EPOCH":15246,"BSTAR":-6.3380228e-5,"MEAN_MOTION_DOT":-1.059e-5,"MEAN_MOTION_DDOT":0},{"OBJECT_NAME":"STARLINK-6242","OBJECT_ID":"2023-061BC","EPOCH":"2026-02-06T23:17:24.661248","MEAN_MOTION":15.02529022,"ECCENTRICITY":0.00010915,"INCLINATION":43.0045,"RA_OF_ASC_NODE":338.3801,"ARG_OF_PERICENTER":262.4152,"MEAN_ANOMALY":97.6566,"EPHEMERIS_TYPE":0,"CLASSIFICATION_TYPE":"U","NORAD_CAT_ID":56424,"ELEMENT_SET_NO":999,"REV_AT_EPOCH":15243,"BSTAR":-4.21477e-6,"MEAN_MOTION_DOT":-2.6e-6,"MEAN_MOTION_DDOT":0},{"OBJECT_NAME":"STARLINK-6224","OBJECT_ID":"2023-061BD","EPOCH":"2026-02-05T21:50:32.849952","MEAN_MOTION":15.0253396,"ECCENTRICITY":0.0001215,"INCLINATION":43.0053,"RA_OF_ASC_NODE":344.1853,"ARG_OF_PERICENTER":272.5308,"MEAN_ANOMALY":87.5395,"EPHEMERIS_TYPE":0,"CLASSIFICATION_TYPE":"U","NORAD_CAT_ID":56425,"ELEMENT_SET_NO":999,"REV_AT_EPOCH":15227,"BSTAR":5.7921e-5,"MEAN_MOTION_DOT":5.79e-6,"MEAN_MOTION_DDOT":0},{"OBJECT_NAME":"STARLINK-5352","OBJECT_ID":"2023-061BE","EPOCH":"2026-02-07T05:11:41.167680","MEAN_MOTION":15.02551096,"ECCENTRICITY":0.000128,"INCLINATION":43.0064,"RA_OF_ASC_NODE":337.6354,"ARG_OF_PERICENTER":269.5714,"MEAN_ANOMALY":90.4981,"EPHEMERIS_TYPE":0,"CLASSIFICATION_TYPE":"U","NORAD_CAT_ID":56426,"ELEMENT_SET_NO":999,"REV_AT_EPOCH":15246,"BSTAR":0.00014947998,"MEAN_MOTION_DOT":1.817e-5,"MEAN_MOTION_DDOT":0},{"OBJECT_NAME":"STARLINK-5724","OBJECT_ID":"2023-061BF","EPOCH":"2026-02-07T04:57:19.112544","MEAN_MOTION":15.02547027,"ECCENTRICITY":0.00018372,"INCLINATION":43.0061,"RA_OF_ASC_NODE":337.561,"ARG_OF_PERICENTER":271.3963,"MEAN_ANOMALY":88.6669,"EPHEMERIS_TYPE":0,"CLASSIFICATION_TYPE":"U","NORAD_CAT_ID":56427,"ELEMENT_SET_NO":999,"REV_AT_EPOCH":15246,"BSTAR":-0.00037869136,"MEAN_MOTION_DOT":-5.317e-5,"MEAN_MOTION_DDOT":0},{"OBJECT_NAME":"STARLINK-6238","OBJECT_ID":"2023-061BG","EPOCH":"2026-02-07T05:30:44.297568","MEAN_MOTION":15.02528554,"ECCENTRICITY":0.00010942,"INCLINATION":43.0056,"RA_OF_ASC_NODE":336.887,"ARG_OF_PERICENTER":269.9591,"MEAN_ANOMALY":90.1126,"EPHEMERIS_TYPE":0,"CLASSIFICATION_TYPE":"U","NORAD_CAT_ID":56428,"ELEMENT_SET_NO":999,"REV_AT_EPOCH":15247,"BSTAR":-0.00010984282,"MEAN_MOTION_DOT":-1.687e-5,"MEAN_MOTION_DDOT":0},{"OBJECT_NAME":"STARLINK-6264","OBJECT_ID":"2023-061BH","EPOCH":"2026-02-07T05:25:57.586080","MEAN_MOTION":15.02522609,"ECCENTRICITY":0.00014582,"INCLINATION":43.0067,"RA_OF_ASC_NODE":336.8625,"ARG_OF_PERICENTER":267.3263,"MEAN_ANOMALY":92.7413,"EPHEMERIS_TYPE":0,"CLASSIFICATION_TYPE":"U","NORAD_CAT_ID":56429,"ELEMENT_SET_NO":999,"REV_AT_EPOCH":15247,"BSTAR":-0.0001096683,"MEAN_MOTION_DOT":-1.684e-5,"MEAN_MOTION_DDOT":0},{"OBJECT_NAME":"STARLINK-5990","OBJECT_ID":"2023-064A","EPOCH":"2026-02-06T21:48:51.350688","MEAN_MOTION":14.98330695,"ECCENTRICITY":0.0002442,"INCLINATION":69.9989,"RA_OF_ASC_NODE":222.1339,"ARG_OF_PERICENTER":277.7896,"MEAN_ANOMALY":82.2986,"EPHEMERIS_TYPE":0,"CLASSIFICATION_TYPE":"U","NORAD_CAT_ID":56448,"ELEMENT_SET_NO":999,"REV_AT_EPOCH":15063,"BSTAR":-0.00010984,"MEAN_MOTION_DOT":-1.403e-5,"MEAN_MOTION_DDOT":0},{"OBJECT_NAME":"STARLINK-5993","OBJECT_ID":"2023-064B","EPOCH":"2026-02-06T22:18:41.289984","MEAN_MOTION":14.98338963,"ECCENTRICITY":0.0002654,"INCLINATION":69.9987,"RA_OF_ASC_NODE":222.2073,"ARG_OF_PERICENTER":267.2806,"MEAN_ANOMALY":92.8049,"EPHEMERIS_TYPE":0,"CLASSIFICATION_TYPE":"U","NORAD_CAT_ID":56449,"ELEMENT_SET_NO":999,"REV_AT_EPOCH":15063,"BSTAR":0.00017319,"MEAN_MOTION_DOT":1.975e-5,"MEAN_MOTION_DDOT":0},{"OBJECT_NAME":"STARLINK-5970","OBJECT_ID":"2023-064C","EPOCH":"2026-02-06T21:42:51.216480","MEAN_MOTION":14.98320041,"ECCENTRICITY":0.0002711,"INCLINATION":69.9987,"RA_OF_ASC_NODE":222.119,"ARG_OF_PERICENTER":279.7915,"MEAN_ANOMALY":80.2938,"EPHEMERIS_TYPE":0,"CLASSIFICATION_TYPE":"U","NORAD_CAT_ID":56450,"ELEMENT_SET_NO":999,"REV_AT_EPOCH":15063,"BSTAR":-9.1835e-5,"MEAN_MOTION_DOT":-1.188e-5,"MEAN_MOTION_DDOT":0},{"OBJECT_NAME":"STARLINK-5985","OBJECT_ID":"2023-064D","EPOCH":"2026-02-06T22:12:39.932352","MEAN_MOTION":14.98326348,"ECCENTRICITY":0.0002619,"INCLINATION":69.9991,"RA_OF_ASC_NODE":222.1924,"ARG_OF_PERICENTER":266.7495,"MEAN_ANOMALY":93.3365,"EPHEMERIS_TYPE":0,"CLASSIFICATION_TYPE":"U","NORAD_CAT_ID":56451,"ELEMENT_SET_NO":999,"REV_AT_EPOCH":15063,"BSTAR":5.6271e-5,"MEAN_MOTION_DOT":5.78e-6,"MEAN_MOTION_DDOT":0}]
